ONEWEB-0628             
1 55169U 23004AF  25065.53654947 -.00000439  00000+0 -12544-2 0  9991
2 55169  87.8805  83.7251 0001413 112.5189 247.6089 13.12444398106693
ONEWEB-0629             
1 55170U 23004AG  25065.65044439  .00000020  00000+0  17519-4 0  9998
2 55170  87.9014  99.0024 0002044 106.9399 253.1956 13.17649245106011
ONEWEB-0631             
1 55171U 23004AH  25065.70179536  .00000098  00000+0  21478-3 0  9995
2 55171  87.9058  68.3818 0001627  71.4737 288.6572 13.18687665108061
ONEWEB-0709             
1 55172U 23004AJ  25065.65773930  .00000565  00000+0  15579-2 0  9991
2 55172  87.8834 114.3038 0002147  71.9072 288.2290 13.11417188104595
ONEWEB-0710             
1 55173U 23004AK  25065.58885564  .00000011  00000+0 -37521-5 0  9992
2 55173  87.9013  99.0391 0001809  96.5816 263.5521 13.17648149106000
ONEWEB-0711             
1 55174U 23004AL  25065.62889031 -.00000620  00000+0 -17861-2 0  9990
2 55174  87.8835 114.2774 0001273 117.1187 243.0070 13.11417317104558
ONEWEB-0713             
1 55175U 23004AM  25065.64756234  .00000289  00000+0  77908-3 0  9999
2 55175  87.8835 114.2817 0001633 104.5617 255.5692 13.11419886104545
ONEWEB-0715             
1 55176U 23004AN  25065.64247420  .00000199  00000+0  52615-3 0  9990
2 55176  87.8836 114.2829 0001768  87.4963 272.6367 13.11419693104581
